{
    "links": {
        "self": "http://www.neowsapp.com/rest/v1/neo/3092092?api_key=iIulBulltgU6a56xZRHN4H3l9WmuAYTsLGpBGhQ2"
    },
    "id": "3092092",
    "neo_reference_id": "3092092",
    "name": "(2001 RO3)",
    "designation": "2001 RO3",
    "nasa_jpl_url": "http://ssd.jpl.nasa.gov/sbdb.cgi?sstr=3092092",
    "absolute_magnitude_h": 23.5,
    "estimated_diameter": {
        "kilometers": {
            "estimated_diameter_min": 0.0530340723,
            "estimated_diameter_max": 0.1185877909
        },
        "meters": {
            "estimated_diameter_min": 53.0340723319,
            "estimated_diameter_max": 118.5877908577
        },
        "miles": {
            "estimated_diameter_min": 0.0329538346,
            "estimated_diameter_max": 0.0736870142
        },
        "feet": {
            "estimated_diameter_min": 173.9963058693,
            "estimated_diameter_max": 389.0675677576
        }
    },
    "is_potentially_hazardous_asteroid": false,
    "close_approach_data": [
        {
            "close_approach_date": "1993-11-14",
            "close_approach_date_full": "1993-Nov-14 03:37",
            "epoch_date_close_approach": 753248220000,
            "relative_velocity": {
                "kilometers_per_second": "20.8011862003",
                "kilometers_per_hour": "74884.2703211326",
                "miles_per_hour": "46530.1734114837"
            },
            "miss_distance": {
                "astronomical": "0.4508715529",
                "lunar": "175.3890340781",
                "kilometers": "67449423.957432323",
                "miles": "41911128.6022911374"
            },
            "orbiting_body": "Earth"
        },
        {
            "close_approach_date": "2001-09-09",
            "close_approach_date_full": "2001-Sep-09 07:55",
            "epoch_date_close_approach": 1000022100000,
            "relative_velocity": {
                "kilometers_per_second": "9.3165693919",
                "kilometers_per_hour": "33539.6498109349",
                "miles_per_hour": "20840.2340728001"
            },
            "miss_distance": {
                "astronomical": "0.027827043",
                "lunar": "10.824719727",
                "kilometers": "4162866.36119841",
                "miles": "2586685.210661658"
            },
            "orbiting_body": "Earth"
        },
        {
            "close_approach_date": "2005-08-04",
            "close_approach_date_full": "2005-Aug-04 10:55",
            "epoch_date_close_approach": 1123152900000,
            "relative_velocity": {
                "kilometers_per_second": "17.5271957991",
                "kilometers_per_hour": "63097.9048767478",
                "miles_per_hour": "39206.5842829992"
            },
            "miss_distance": {
                "astronomical": "0.3038176474",
                "lunar": "118.1850648386",
                "kilometers": "45450472.919451038",
                "miles": "28241614.2910908044"
            },
            "orbiting_body": "Earth"
        }
    ],
    "orbital_data": {
        "orbit_id": "14",
        "orbit_determination_date": "2017-04-06 09:16:10",
        "first_observation_date": "2001-09-07",
        "last_observation_date": "2001-10-11",
        "data_arc_in_days": 34,
        "observations_used": 79,
        "orbit_uncertainty": "7",
        "minimum_orbit_intersection": ".00809625",
        "jupiter_tisserand_invariant": "3.187",
        "epoch_osculation": "2459000.5",
        "eccentricity": ".5977368458187261",
        "semi_major_axis": "2.488984122482907",
        "inclination": "8.682597376204667",
        "ascending_node_longitude": "345.1662832171129",
        "orbital_period": "1434.27231709525",
        "perihelion_distance": "1.001226603817084",
        "perihelion_argument": "16.17998541781006",
        "aphelion_distance": "3.976741641148729",
        "perihelion_time": "2459364.195815387661",
        "mean_anomaly": "268.71294664271",
        "mean_motion": ".2509983604292715",
        "equinox": "J2000",
        "orbit_class": {
            "orbit_class_type": "APO",
            "orbit_class_description": "Near-Earth asteroid orbits which cross the Earth’s orbit similar to that of 1862 Apollo",
            "orbit_class_range": "a (semi-major axis) > 1.0 AU; q (perihelion) < 1.017 AU"
        }
    },
    "is_sentry_object": false
}